{"type": "FeatureCollection", "features": [ {"type": "Feature", "properties": {"norad_id": 66614, "name": "STARLINK-36040", "group": "last-30-days", "lat": -40.39991226295272, "lon": 74.69539323293758, "alt_km": 445.88169199243384, "timestamp": "2025-12-21T16:47:53.448130+00:00", "meta": {"OBJECT_NAME": "STARLINK-36040", "OBJECT_ID": "2025-270AC", "EPOCH": "2025-12-21T00:00:02.000160", "MEAN_MOTION": 15.40692599, "ECCENTRICITY": 0.00019973, "INCLINATION": 43, "RA_OF_ASC_NODE": 144.6954, "ARG_OF_PERICENTER": 275.5423, "MEAN_ANOMALY": 85.8984, "EPHEMERIS_TYPE": 0, "CLASSIFICATION_TYPE": "U", "NORAD_CAT_ID": 66614, "ELEMENT_SET_NO": 999, "REV_AT_EPOCH": 557, "BSTAR": 0.00059715396, "MEAN_MOTION_DOT": 0.00024716, "MEAN_MOTION_DDOT": 0}, "tle": {"line1": "1 66614U 25270AC  25355.00002315  .00024716  00000+0  59715-3 0  9999", "line2": "2 66614  43.0000 144.6954 0001997 275.5423  85.8984 15.40692599  5578"}}, "geometry": {"type": "Point", "coordinates": [74.69539323293758, -40.39991226295272]}}, {"type": "Feature", "properties": {"norad_id": 66615, "name": "STARLINK-35988", "group": "last-30-days", "lat": -22.134049350639927, "lon": -13.277322082117362, "alt_km": 445.48549904137326, "timestamp": "2025-12-21T16:47:53.448140+00:00", "meta": {"OBJECT_NAME": "STARLINK-35988", "OBJECT_ID": "2025-270AD", "EPOCH": "2025-12-21T11:12:29.897280", "MEAN_MOTION": 15.40725289, "ECCENTRICITY": 0.0001088, "INCLINATION": 42.9984, "RA_OF_ASC_NODE": 142.1832, "ARG_OF_PERICENTER": 251.7254, "MEAN_ANOMALY": 108.3484, "EPHEMERIS_TYPE": 0, "CLASSIFICATION_TYPE": "U", "NORAD_CAT_ID": 66615, "ELEMENT_SET_NO": 999, "REV_AT_EPOCH": 553, "BSTAR": 0.00079898, "MEAN_MOTION_DOT": 0.00033245, "MEAN_MOTION_DDOT": 0}, "tle": {"line1": "1 66615U 25270AD  25355.46701270  .00033245  00000+0  79898-3 0  9997", "line2": "2 66615  42.9984 142.1832 0001088 251.7254 108.3484 15.40725289  5530"}}, "geometry": {"type": "Point", "coordinates": [-13.277322082117362, -22.134049350639927]}}, {"type": "Feature", "properties": {"norad_id": 66616, "name": "STARLINK-35391", "group": "last-30-days", "lat": -29.963409230582428, "lon": 102.38437676689112, "alt_km": 446.1475564025586, "timestamp": "2025-12-21T16:47:53.448150+00:00", "meta": {"OBJECT_NAME": "STARLINK-35391", "OBJECT_ID": "2025-270AE", "EPOCH": "2025-12-21T12:00:02.000160", "MEAN_MOTION": 15.40685399, "ECCENTRICITY": 0.0001299, "INCLINATION": 43, "RA_OF_ASC_NODE": 141.7548, "ARG_OF_PERICENTER": 266.4255, "MEAN_ANOMALY": 16.4556, "EPHEMERIS_TYPE": 0, "CLASSIFICATION_TYPE": "U", "NORAD_CAT_ID": 66616, "ELEMENT_SET_NO": 999, "REV_AT_EPOCH": 591, "BSTAR": 0.00040108, "MEAN_MOTION_DOT": 0.00016479, "MEAN_MOTION_DDOT": 0}, "tle": {"line1": "1 66616U 25270AE  25355.50002315  .00016479  00000+0  40108-3 0  9999", "line2": "2 66616  43.0000 141.7548 0001299 266.4255  16.4556 15.40685399  5917"}}, "geometry": {"type": "Point", "coordinates": [102.38437676689112, -29.963409230582428]}}, {"type": "Feature", "properties": {"norad_id": 66617, "name": "STARLINK-35940", "group": "last-30-days", "lat": 3.668014756844923, "lon": -37.89111734283283, "alt_km": 447.43338206873705, "timestamp": "2025-12-21T16:47:53.448164+00:00", "meta": {"OBJECT_NAME": "STARLINK-35940", "OBJECT_ID": "2025-271A", "EPOCH": "2025-12-21T09:48:30.492000", "MEAN_MOTION": 15.39651543, "ECCENTRICITY": 0.0001558, "INCLINATION": 53.1604, "RA_OF_ASC_NODE": 146.2364, "ARG_OF_PERICENTER": 87.6569, "MEAN_ANOMALY": 272.4614, "EPHEMERIS_TYPE": 0, "CLASSIFICATION_TYPE": "U", "NORAD_CAT_ID": 66617, "ELEMENT_SET_NO": 999, "REV_AT_EPOCH": 554, "BSTAR": 0.0008272, "MEAN_MOTION_DOT": 0.00032865, "MEAN_MOTION_DDOT": 0}, "tle": {"line1": "1 66617U 25271A   25355.40868625  .00032865  00000+0  82720-3 0  9997", "line2": "2 66617  53.1604 146.2364 0001558  87.6569 272.4614 15.39651543  5545"}}, "geometry": {"type": "Point", "coordinates": [-37.89111734283283, 3.668014756844923]}}, {"type": "Feature", "properties": {"norad_id": 66618, "name": "STARLINK-35970", "group": "last-30-days", "lat": 52.43118578597786, "lon": -138.61206184735914, "alt_km": 420.4545843521719, "timestamp": "2025-12-21T16:47:53.448175+00:00", "meta": {"OBJECT_NAME": "STARLINK-35970", "OBJECT_ID": "2025-271B", "EPOCH": "2025-12-21T11:47:27.036096", "MEAN_MOTION": 15.4627532, "ECCENTRICITY": 9.78e-05, "INCLINATION": 53.1603, "RA_OF_ASC_NODE": 145.3183, "ARG_OF_PERICENTER": 165.6598, "MEAN_ANOMALY": 194.4438, "EPHEMERIS_TYPE": 0, "CLASSIFICATION_TYPE": "U", "NORAD_CAT_ID": 66618, "ELEMENT_SET_NO": 999, "REV_AT_EPOCH": 556, "BSTAR": 0.00096564, "MEAN_MOTION_DOT": 0.0004819, "MEAN_MOTION_DDOT": 0}, "tle": {"line1": "1 66618U 25271B   25355.49128514  .00048190  00000+0  96564-3 0  9992", "line2": "2 66618  53.1603 145.3183 0000978 165.6598 194.4438 15.46275320  5560"}}, "geometry": {"type": "Point", "coordinates": [-138.61206184735914, 52.43118578597786]}}, {"type": "Feature", "properties": {"norad_id": 66619, "name": "STARLINK-35951", "group": "last-30-days", "lat": 28.98018158908862, "lon": 168.95436181356834, "alt_km": 425.4302112702917, "timestamp": "2025-12-21T16:47:53.448185+00:00", "meta": {"OBJECT_NAME": "STARLINK-35951", "OBJECT_ID": "2025-271C", "EPOCH": "2025-12-21T08:52:56.449056", "MEAN_MOTION": 15.46426118, "ECCENTRICITY": 0.0002785, "INCLINATION": 53.1602, "RA_OF_ASC_NODE": 145.991, "ARG_OF_PERICENTER": 209.0656, "MEAN_ANOMALY": 151.0197, "EPHEMERIS_TYPE": 0, "CLASSIFICATION_TYPE": "U", "NORAD_CAT_ID": 66619, "ELEMENT_SET_NO": 999, "REV_AT_EPOCH": 554, "BSTAR": 0.0017028, "MEAN_MOTION_DOT": 0.00086184, "MEAN_MOTION_DDOT": 0}, "tle": {"line1": "1 66619U 25271C   25355.37009779  .00086184  00000+0  17028-2 0  9993", "line2": "2 66619  53.1602 145.9910 0002785 209.0656 151.0197 15.46426118  5542"}}, "geometry": {"type": "Point", "coordinates": [168.95436181356834, 28.98018158908862]}}, {"type": "Feature", "properties": {"norad_id": 66620, "name": "STARLINK-35936", "group": "last-30-days", "lat": 12.376698167629451, "lon": 153.93220942245776, "alt_km": 433.5467562955364, "timestamp": "2025-12-21T16:47:53.448195+00:00", "meta": {"OBJECT_NAME": "STARLINK-35936", "OBJECT_ID": "2025-271D", "EPOCH": "2025-12-19T22:47:58.481952", "MEAN_MOTION": 15.45204148, "ECCENTRICITY": 0.0001217, "INCLINATION": 53.1593, "RA_OF_ASC_NODE": 152.7719, "ARG_OF_PERICENTER": 60.4895, "MEAN_ANOMALY": 299.6234, "EPHEMERIS_TYPE": 0, "CLASSIFICATION_TYPE": "U", "NORAD_CAT_ID": 66620, "ELEMENT_SET_NO": 999, "REV_AT_EPOCH": 532, "BSTAR": -0.0084825, "MEAN_MOTION_DOT": -0.00389636, "MEAN_MOTION_DDOT": 0}, "tle": {"line1": "1 66620U 25271D   25353.94998243 -.00389636  00000+0 -84825-2 0  9998", "line2": "2 66620  53.1593 152.7719 0001217  60.4895 299.6234 15.45204148  5322"}}, "geometry": {"type": "Point", "coordinates": [153.93220942245776, 12.376698167629451]}}, {"type": "Feature", "properties": {"norad_id": 66621, "name": "STARLINK-35847", "group": "last-30-days", "lat": 52.94861560149455, "lon": -132.4293453374397, "alt_km": 421.9857848065594, "timestamp": "2025-12-21T16:47:53.448208+00:00", "meta": {"OBJECT_NAME": "STARLINK-35847", "OBJECT_ID": "2025-271E", "EPOCH": "2025-12-19T22:32:40.837056", "MEAN_MOTION": 15.4673989, "ECCENTRICITY": 5.74e-05, "INCLINATION": 53.1594, "RA_OF_ASC_NODE": 152.6978, "ARG_OF_PERICENTER": 182.8412, "MEAN_ANOMALY": 177.2593, "EPHEMERIS_TYPE": 0, "CLASSIFICATION_TYPE": "U", "NORAD_CAT_ID": 66621, "ELEMENT_SET_NO": 999, "REV_AT_EPOCH": 532, "BSTAR": -0.0053109, "MEAN_MOTION_DOT": -0.00261578, "MEAN_MOTION_DDOT": 0}, "tle": {"line1": "1 66621U 25271E   25353.93936154 -.00261578  00000+0 -53109-2 0  9996", "line2": "2 66621  53.1594 152.6978 0000574 182.8412 177.2593 15.46739890  5326"}}, "geometry": {"type": "Point", "coordinates": [-132.4293453374397, 52.94861560149455]}}, {"type": "Feature", "properties": {"norad_id": 66622, "name": "STARLINK-35950", "group": "last-30-days", "lat": -52.3421050233367, "lon": 68.36737744001202, "alt_km": 452.8964600496456, "timestamp": "2025-12-21T16:47:53.448218+00:00", "meta": {"OBJECT_NAME": "STARLINK-35950", "OBJECT_ID": "2025-271F", "EPOCH": "2025-12-21T12:00:02.000160", "MEAN_MOTION": 15.39611218, "ECCENTRICITY": 0.0001269, "INCLINATION": 53.1596, "RA_OF_ASC_NODE": 145.5997, "ARG_OF_PERICENTER": 86.4163, "MEAN_ANOMALY": 163.3292, "EPHEMERIS_TYPE": 0, "CLASSIFICATION_TYPE": "U", "NORAD_CAT_ID": 66622, "ELEMENT_SET_NO": 999, "REV_AT_EPOCH": 565, "BSTAR": 0.00038994, "MEAN_MOTION_DOT": 0.00015224, "MEAN_MOTION_DDOT": 0}, "tle": {"line1": "1 66622U 25271F   25355.50002315  .00015224  00000+0  38994-3 0  9994", "line2": "2 66622  53.1596 145.5997 0001269  86.4163 163.3292 15.39611218  5658"}}, "geometry": {"type": "Point", "coordinates": [68.36737744001202, -52.3421050233367]}}, {"type": "Feature", "properties": {"norad_id": 66623, "name": "STARLINK-35920", "group": "last-30-days", "lat": -35.81560561253349, "lon": -2.489652938129282, "alt_km": 451.41585842024415, "timestamp": "2025-12-21T16:47:53.448228+00:00", "meta": {"OBJECT_NAME": "STARLINK-35920", "OBJECT_ID": "2025-271G", "EPOCH": "2025-12-21T03:21:11.947104", "MEAN_MOTION": 15.39639229, "ECCENTRICITY": 3.695e-05, "INCLINATION": 53.1604, "RA_OF_ASC_NODE": 147.3981, "ARG_OF_PERICENTER": 94.5229, "MEAN_ANOMALY": 265.5818, "EPHEMERIS_TYPE": 0, "CLASSIFICATION_TYPE": "U", "NORAD_CAT_ID": 66623, "ELEMENT_SET_NO": 999, "REV_AT_EPOCH": 550, "BSTAR": 0.00074533319, "MEAN_MOTION_DOT": 0.00029548, "MEAN_MOTION_DDOT": 0}, "tle": {"line1": "1 66623U 25271G   25355.13972161  .00029548  00000+0  74533-3 0  9992", "line2": "2 66623  53.1604 147.3981 0000369  94.5229 265.5818 15.39639229  5500"}}, "geometry": {"type": "Point", "coordinates": [-2.489652938129282, -35.81560561253349]}}]}